{
  "norad_id": 56529,
  "name": "STARLINK-6307",
  "history": [
    {
      "epoch": "2026-03-28T22:00:01.999584Z",
      "apogee_km": 495.9113106171726,
      "perigee_km": 493.56944637922334,
      "latitude_deg": 30.795242349638475,
      "longitude_deg": 76.17105399247271,
      "height_km": 495.58742974302623,
      "semi_major_axis_km": 6872.877378498198,
      "eccentricity": 0.00017037,
      "inclination_deg": 43.0008,
      "raan_deg": 91.9738,
      "arg_perigee_deg": 228.4366,
      "mean_anomaly_deg": 263.1541,
      "mean_motion_rev_day": 15.23683865
    },
    {
      "epoch": "2026-03-29T04:00:01.999584Z",
      "apogee_km": 492.89296938872485,
      "perigee_km": 491.0586492686334,
      "latitude_deg": 38.33928445646364,
      "longitude_deg": -98.51356917060065,
      "height_km": 494.95821201027115,
      "semi_major_axis_km": 6870.112809328679,
      "eccentricity": 0.0001335,
      "inclination_deg": 43.0027,
      "raan_deg": 90.5768,
      "arg_perigee_deg": 265.3406,
      "mean_anomaly_deg": 159.695,
      "mean_motion_rev_day": 15.24603665
    },
    {
      "epoch": "2026-03-30T04:00:01.999584Z",
      "apogee_km": 489.07199705201765,
      "perigee_km": 487.02312757862273,
      "latitude_deg": 11.339964437463719,
      "longitude_deg": 5.0287577556925545,
      "height_km": 487.4559137478014,
      "semi_major_axis_km": 6866.184562315319,
      "eccentricity": 0.0001492,
      "inclination_deg": 43.0034,
      "raan_deg": 84.9472,
      "arg_perigee_deg": 275.9887,
      "mean_anomaly_deg": 247.288,
      "mean_motion_rev_day": 15.25912225
    },
    {
      "epoch": "2026-03-30T06:00:02.000160Z",
      "apogee_km": 489.1068200599848,
      "perigee_km": 487.0263603721487,
      "latitude_deg": -42.59062052167443,
      "longitude_deg": 65.4095938002989,
      "height_km": 500.2008584710282,
      "semi_major_axis_km": 6866.203590216066,
      "eccentricity": 0.0001515,
      "inclination_deg": 43.0034,
      "raan_deg": 84.4774,
      "arg_perigee_deg": 280.8644,
      "mean_anomaly_deg": 340.7258,
      "mean_motion_rev_day": 15.25905882
    },
    {
      "epoch": "2026-03-30T14:00:03.000384Z",
      "apogee_km": 489.08092078542086,
      "perigee_km": 486.9809719806999,
      "latitude_deg": -38.393647728683554,
      "longitude_deg": -13.065707019945334,
      "height_km": 498.38575876046707,
      "semi_major_axis_km": 6866.167946383061,
      "eccentricity": 0.00015292,
      "inclination_deg": 43.0004,
      "raan_deg": 82.598,
      "arg_perigee_deg": 283.9391,
      "mean_anomaly_deg": 10.9342,
      "mean_motion_rev_day": 15.25917764
    },
    {
      "epoch": "2026-03-30T22:00:00.999936Z",
      "apogee_km": 489.07156357619897,
      "perigee_km": 487.1788097418257,
      "latitude_deg": -21.336318192802874,
      "longitude_deg": -102.2041009043016,
      "height_km": 492.4640880208863,
      "semi_major_axis_km": 6866.2621866590125,
      "eccentricity": 0.00013783,
      "inclination_deg": 43.0002,
      "raan_deg": 80.7197,
      "arg_perigee_deg": 272.451,
      "mean_anomaly_deg": 55.5507,
      "mean_motion_rev_day": 15.25886349
    },
    {
      "epoch": "2026-03-31T20:00:01.999008Z",
      "apogee_km": 489.07047727895315,
      "perigee_km": 487.1836279172985,
      "latitude_deg": -20.413698775040604,
      "longitude_deg": -77.04223880570089,
      "height_km": 492.2294876977249,
      "semi_major_axis_km": 6866.264052598125,
      "eccentricity": 0.0001374,
      "inclination_deg": 43.0003,
      "raan_deg": 75.5554,
      "arg_perigee_deg": 269.0629,
      "mean_anomaly_deg": 60.4138,
      "mean_motion_rev_day": 15.25885727
    },
    {
      "epoch": "2026-04-01T20:00:01.999008Z",
      "apogee_km": 489.1696155919426,
      "perigee_km": 487.0671681909462,
      "latitude_deg": 39.75194449088829,
      "longitude_deg": 2.2220075247585327,
      "height_km": 491.5572448242148,
      "semi_major_axis_km": 6866.255391891445,
      "eccentricity": 0.0001531,
      "inclination_deg": 43.0005,
      "raan_deg": 69.9221,
      "arg_perigee_deg": 262.4572,
      "mean_anomaly_deg": 166.7173,
      "mean_motion_rev_day": 15.25888614
    },
    {
      "epoch": "2026-04-02T20:00:01.999008Z",
      "apogee_km": 489.22651319591296,
      "perigee_km": 487.00322084137224,
      "latitude_deg": 7.55515772037812,
      "longitude_deg": 104.9731864989414,
      "height_km": 487.21784359828763,
      "semi_major_axis_km": 6866.251867018643,
      "eccentricity": 0.0001619,
      "inclination_deg": 43.0008,
      "raan_deg": 64.2891,
      "arg_perigee_deg": 258.4775,
      "mean_anomaly_deg": 270.408,
      "mean_motion_rev_day": 15.25889789
    },
    {
      "epoch": "2026-04-02T22:00:01.999584Z",
      "apogee_km": 489.0214087730292,
      "perigee_km": 487.23206044379094,
      "latitude_deg": -43.095398752257026,
      "longitude_deg": 168.73927321014074,
      "height_km": 500.58825886603154,
      "semi_major_axis_km": 6866.26373460841,
      "eccentricity": 0.0001303,
      "inclination_deg": 43.0008,
      "raan_deg": 63.8201,
      "arg_perigee_deg": 251.7767,
      "mean_anomaly_deg": 15.4227,
      "mean_motion_rev_day": 15.25885833
    },
    {
      "epoch": "2026-04-03T14:06:56.482272Z",
      "apogee_km": 488.92841367158417,
      "perigee_km": 487.1404626290896,
      "latitude_deg": 8.018088997512386e-06,
      "longitude_deg": 16.38315411082378,
      "height_km": 487.7801380843711,
      "semi_major_axis_km": 6866.171438150336,
      "eccentricity": 0.0001302,
      "inclination_deg": 43.0012,
      "raan_deg": 60.0388,
      "arg_perigee_deg": 272.0014,
      "mean_anomaly_deg": 88.0688,
      "mean_motion_rev_day": 15.259166
    },
    {
      "epoch": "2026-04-04T13:40:51.539808Z",
      "apogee_km": 489.20244647706386,
      "perigee_km": 487.0217257673121,
      "latitude_deg": -1.1064134911617354e-05,
      "longitude_deg": 16.404734563339836,
      "height_km": 487.84634538335774,
      "semi_major_axis_km": 6866.249086122188,
      "eccentricity": 0.0001588,
      "inclination_deg": 43.002,
      "raan_deg": 54.5076,
      "arg_perigee_deg": 272.2597,
      "mean_anomaly_deg": 87.8072,
      "mean_motion_rev_day": 15.25890716
    },
    {
      "epoch": "2026-04-05T13:14:45.835296Z",
      "apogee_km": 489.33978932909486,
      "perigee_km": 486.86656961644894,
      "latitude_deg": -1.681421852118439e-05,
      "longitude_deg": 16.429112303166345,
      "height_km": 488.0328864426834,
      "semi_major_axis_km": 6866.240179472772,
      "eccentricity": 0.0001801,
      "inclination_deg": 43.0037,
      "raan_deg": 48.976,
      "arg_perigee_deg": 262.9332,
      "mean_anomaly_deg": 97.1314,
      "mean_motion_rev_day": 15.25893685
    },
    {
      "epoch": "2026-04-06T06:31:37.080480Z",
      "apogee_km": 488.99451163538197,
      "perigee_km": 487.17894475717185,
      "latitude_deg": 5.353475849080045e-05,
      "longitude_deg": 112.4499628359409,
      "height_km": 487.77602753697636,
      "semi_major_axis_km": 6866.223728196276,
      "eccentricity": 0.00013221,
      "inclination_deg": 43.0035,
      "raan_deg": 44.92,
      "arg_perigee_deg": 275.5563,
      "mean_anomaly_deg": 84.5138,
      "mean_motion_rev_day": 15.25899169
    },
    {
      "epoch": "2026-04-07T12:22:31.864512Z",
      "apogee_km": 488.94544449904606,
      "perigee_km": 487.03679820387333,
      "latitude_deg": 2.5217003895403788e-05,
      "longitude_deg": 16.49122608628194,
      "height_km": 487.6671284777923,
      "semi_major_axis_km": 6866.128121351459,
      "eccentricity": 0.00013899,
      "inclination_deg": 43.0027,
      "raan_deg": 37.9154,
      "arg_perigee_deg": 276.0846,
      "mean_anomaly_deg": 83.9847,
      "mean_motion_rev_day": 15.2593104
    },
    {
      "epoch": "2026-04-08T11:56:25.187136Z",
      "apogee_km": 489.1454335910239,
      "perigee_km": 486.92628652265375,
      "latitude_deg": 1.0613549122640821e-05,
      "longitude_deg": 16.520157523396175,
      "height_km": 487.81367463844566,
      "semi_major_axis_km": 6866.1728600568385,
      "eccentricity": 0.0001616,
      "inclination_deg": 43.003,
      "raan_deg": 32.3843,
      "arg_perigee_deg": 269.9773,
      "mean_anomaly_deg": 90.0893,
      "mean_motion_rev_day": 15.25916126
    },
    {
      "epoch": "2026-04-09T11:30:18.600480Z",
      "apogee_km": 489.08190772179387,
      "perigee_km": 486.98429275617036,
      "latitude_deg": 6.379627566488332e-07,
      "longitude_deg": 16.549614871115367,
      "height_km": 487.8020151667472,
      "semi_major_axis_km": 6866.170100238982,
      "eccentricity": 0.00015275,
      "inclination_deg": 43.003,
      "raan_deg": 26.8541,
      "arg_perigee_deg": 270.4584,
      "mean_anomaly_deg": 89.6092,
      "mean_motion_rev_day": 15.25917046
    },
    {
      "epoch": "2026-04-10T04:47:10.279392Z",
      "apogee_km": 489.0009747314489,
      "perigee_km": 487.1124968063632,
      "latitude_deg": 3.736149812915165e-05,
      "longitude_deg": 112.56911688755021,
      "height_km": 487.82407211998134,
      "semi_major_axis_km": 6866.193735768906,
      "eccentricity": 0.00013752,
      "inclination_deg": 43.0038,
      "raan_deg": 22.7986,
      "arg_perigee_deg": 270.6026,
      "mean_anomaly_deg": 89.4668,
      "mean_motion_rev_day": 15.25909167
    },
    {
      "epoch": "2026-04-11T10:38:06.518400Z",
      "apogee_km": 488.9977387368717,
      "perigee_km": 487.13974346333,
      "latitude_deg": -1.28574502741045e-06,
      "longitude_deg": 16.60389084374739,
      "height_km": 487.82548390122014,
      "semi_major_axis_km": 6866.205741100101,
      "eccentricity": 0.0001353,
      "inclination_deg": 43.0034,
      "raan_deg": 15.7936,
      "arg_perigee_deg": 271.2624,
      "mean_anomaly_deg": 88.8072,
      "mean_motion_rev_day": 15.25905165
    }
  ]
}